STARLINK-6069           
1 56804U 23078AP  26035.29885150 -.00000366  00000+0 -22855-4 0  9999
2 56804  69.9996  48.5759 0003017 270.5141  89.5673 14.98328481148843
STARLINK-6064           
1 56805U 23078AQ  26035.30302598 -.00000494  00000+0 -33635-4 0  9992
2 56805  69.9996  48.5885 0003058 268.6027  91.4781 14.98330083148179
STARLINK-6072           
1 56806U 23078AR  26035.26524010  .00003941  00000+0  33795-3 0  9997
2 56806  70.0017  28.5748 0001937 263.6009  96.4929 14.98327746148645
STARLINK-6073           
1 56807U 23078AS  26035.28230836 -.00295230  00000+0 -26426-1 0  9997
2 56807  70.0006  48.5146 0001828  33.6139 326.5136 14.97397129148172
STARLINK-6042           
1 56808U 23078AT  26035.28785250  .00001039  00000+0  94881-4 0  9996
2 56808  70.0013 358.7569 0002764 268.6316  91.4526 14.98329284149410
STARLINK-6040           
1 56809U 23078AU  26035.30742310  .00000116  00000+0  17504-4 0  9992
2 56809  69.9995  68.4749 0003083 269.4063  90.6743 14.98328300147682
STARLINK-6031           
1 56810U 23078AV  26035.32412537  .00005561  00000+0  47377-3 0  9990
2 56810  69.9994  68.5328 0002763 266.0152  94.0691 14.98308598147680
STARLINK-6063           
1 56811U 23078AW  26035.25004630  .01655156  00000+0  48669-1 0  9999
2 56811  70.0030  27.4011 0002877 279.6819  21.2821 15.31826080  5807
STARLINK-6065           
1 56812U 23078AX  26035.29066872  .00000205  00000+0  24970-4 0  9990
2 56812  70.0005  48.5533 0002449 254.7522 105.3366 14.98329899148177
STARLINK-6056           
1 56813U 23078AY  26035.30293110  .00067535  00000+0  55382-2 0  9998
2 56813  69.9991  68.4592 0005699 274.0458  86.0050 14.98843518147687
STARLINK-6059           
1 56814U 23078AZ  26035.31159768  .00000048  00000+0  11782-4 0  9994
2 56814  69.9996  68.4894 0003131 270.8403  89.2398 14.98329837147684
STARLINK-6067           
1 56816U 23078BB  26035.27798475 -.00001926  00000+0 -15371-3 0  9990
2 56816  69.9996  48.5009 0002979 269.2663  90.8155 14.98317218148176
STARLINK-5982           
1 56817U 23078BC  26035.22489318  .01157173  85060-3  11864-2 0  9999
2 56817  69.9915  56.3903 0003570 272.8708  87.2100 16.10753622147972
STARLINK-6028           
1 56818U 23078BD  26035.23650472  .00011000  00000+0  92770-3 0  9992
2 56818  70.0003  68.6263 0003188 267.1431  92.9363 14.98351184148363
STARLINK-30119          
1 56823U 23079A   26034.92494443  .00001513  00000+0  12700-3 0  9991
2 56823  43.0042 290.9839 0001150 274.0360  86.0350 15.02539977148236
STARLINK-30120          
1 56824U 23079B   26035.12105317  .00002582  00000+0  20620-3 0  9991
2 56824  43.0033 289.8782 0001043 245.2176 114.8558 15.02527490148155
