[{"OBJECT_NAME":"STARLINK-6069","OBJECT_ID":"2023-078AP","EPOCH":"2026-02-04T07:10:20.769600","MEAN_MOTION":14.98328481,"ECCENTRICITY":0.00030171,"INCLINATION":69.9996,"RA_OF_ASC_NODE":48.5759,"ARG_OF_PERICENTER":270.5141,"MEAN_ANOMALY":89.5673,"EPHEMERIS_TYPE":0,"CLASSIFICATION_TYPE":"U","NORAD_CAT_ID":56804,"ELEMENT_SET_NO":999,"REV_AT_EPOCH":14884,"BSTAR":-2.2855376e-5,"MEAN_MOTION_DOT":-3.66e-6,"MEAN_MOTION_DDOT":0},{"OBJECT_NAME":"STARLINK-6064","OBJECT_ID":"2023-078AQ","EPOCH":"2026-02-04T07:16:21.444672","MEAN_MOTION":14.98330083,"ECCENTRICITY":0.00030581,"INCLINATION":69.9996,"RA_OF_ASC_NODE":48.5885,"ARG_OF_PERICENTER":268.6027,"MEAN_ANOMALY":91.4781,"EPHEMERIS_TYPE":0,"CLASSIFICATION_TYPE":"U","NORAD_CAT_ID":56805,"ELEMENT_SET_NO":999,"REV_AT_EPOCH":14817,"BSTAR":-3.3634772e-5,"MEAN_MOTION_DOT":-4.94e-6,"MEAN_MOTION_DDOT":0},{"OBJECT_NAME":"STARLINK-6072","OBJECT_ID":"2023-078AR","EPOCH":"2026-02-04T06:21:56.744640","MEAN_MOTION":14.98327746,"ECCENTRICITY":0.00019377,"INCLINATION":70.0017,"RA_OF_ASC_NODE":28.5748,"ARG_OF_PERICENTER":263.6009,"MEAN_ANOMALY":96.4929,"EPHEMERIS_TYPE":0,"CLASSIFICATION_TYPE":"U","NORAD_CAT_ID":56806,"ELEMENT_SET_NO":999,"REV_AT_EPOCH":14864,"BSTAR":0.00033794831,"MEAN_MOTION_DOT":3.941e-5,"MEAN_MOTION_DDOT":0},{"OBJECT_NAME":"STARLINK-6073","OBJECT_ID":"2023-078AS","EPOCH":"2026-02-04T06:46:31.442304","MEAN_MOTION":14.97397129,"ECCENTRICITY":0.00018288,"INCLINATION":70.0006,"RA_OF_ASC_NODE":48.5146,"ARG_OF_PERICENTER":33.6139,"MEAN_ANOMALY":326.5136,"EPHEMERIS_TYPE":0,"CLASSIFICATION_TYPE":"U","NORAD_CAT_ID":56807,"ELEMENT_SET_NO":999,"REV_AT_EPOCH":14817,"BSTAR":-0.026425874,"MEAN_MOTION_DOT":-0.0029523,"MEAN_MOTION_DDOT":0},{"OBJECT_NAME":"STARLINK-6042","OBJECT_ID":"2023-078AT","EPOCH":"2026-02-04T06:54:30.456000","MEAN_MOTION":14.98329284,"ECCENTRICITY":0.00027641,"INCLINATION":70.0013,"RA_OF_ASC_NODE":358.7569,"ARG_OF_PERICENTER":268.6316,"MEAN_ANOMALY":91.4526,"EPHEMERIS_TYPE":0,"CLASSIFICATION_TYPE":"U","NORAD_CAT_ID":56808,"ELEMENT_SET_NO":999,"REV_AT_EPOCH":14941,"BSTAR":9.4881417e-5,"MEAN_MOTION_DOT":1.039e-5,"MEAN_MOTION_DDOT":0},{"OBJECT_NAME":"STARLINK-6040","OBJECT_ID":"2023-078AU","EPOCH":"2026-02-04T07:22:41.355840","MEAN_MOTION":14.983283,"ECCENTRICITY":0.00030836,"INCLINATION":69.9995,"RA_OF_ASC_NODE":68.4749,"ARG_OF_PERICENTER":269.4063,"MEAN_ANOMALY":90.6743,"EPHEMERIS_TYPE":0,"CLASSIFICATION_TYPE":"U","NORAD_CAT_ID":56809,"ELEMENT_SET_NO":999,"REV_AT_EPOCH":14768,"BSTAR":1.7504456e-5,"MEAN_MOTION_DOT":1.16e-6,"MEAN_MOTION_DDOT":0},{"OBJECT_NAME":"STARLINK-6031","OBJECT_ID":"2023-078AV","EPOCH":"2026-02-04T07:46:44.431968","MEAN_MOTION":14.98308598,"ECCENTRICITY":0.00027638,"INCLINATION":69.9994,"RA_OF_ASC_NODE":68.5328,"ARG_OF_PERICENTER":266.0152,"MEAN_ANOMALY":94.0691,"EPHEMERIS_TYPE":0,"CLASSIFICATION_TYPE":"U","NORAD_CAT_ID":56810,"ELEMENT_SET_NO":999,"REV_AT_EPOCH":14768,"BSTAR":0.00047377269,"MEAN_MOTION_DOT":5.561e-5,"MEAN_MOTION_DDOT":0},{"OBJECT_NAME":"STARLINK-6063","OBJECT_ID":"2023-078AW","EPOCH":"2026-02-04T06:00:04.000320","MEAN_MOTION":15.3182608,"ECCENTRICITY":0.0002877,"INCLINATION":70.003,"RA_OF_ASC_NODE":27.4011,"ARG_OF_PERICENTER":279.6819,"MEAN_ANOMALY":21.2821,"EPHEMERIS_TYPE":0,"CLASSIFICATION_TYPE":"U","NORAD_CAT_ID":56811,"ELEMENT_SET_NO":999,"REV_AT_EPOCH":580,"BSTAR":0.048669015,"MEAN_MOTION_DOT":0.01655156,"MEAN_MOTION_DDOT":0},{"OBJECT_NAME":"STARLINK-6065","OBJECT_ID":"2023-078AX","EPOCH":"2026-02-04T06:58:33.777408","MEAN_MOTION":14.98329899,"ECCENTRICITY":0.00024497,"INCLINATION":70.0005,"RA_OF_ASC_NODE":48.5533,"ARG_OF_PERICENTER":254.7522,"MEAN_ANOMALY":105.3366,"EPHEMERIS_TYPE":0,"CLASSIFICATION_TYPE":"U","NORAD_CAT_ID":56812,"ELEMENT_SET_NO":999,"REV_AT_EPOCH":14817,"BSTAR":2.4969805e-5,"MEAN_MOTION_DOT":2.05e-6,"MEAN_MOTION_DDOT":0},{"OBJECT_NAME":"STARLINK-6056","OBJECT_ID":"2023-078AY","EPOCH":"2026-02-04T07:16:13.247040","MEAN_MOTION":14.98843518,"ECCENTRICITY":0.00056995,"INCLINATION":69.9991,"RA_OF_ASC_NODE":68.4592,"ARG_OF_PERICENTER":274.0458,"MEAN_ANOMALY":86.005,"EPHEMERIS_TYPE":0,"CLASSIFICATION_TYPE":"U","NORAD_CAT_ID":56813,"ELEMENT_SET_NO":999,"REV_AT_EPOCH":14768,"BSTAR":0.0055382449,"MEAN_MOTION_DOT":0.00067535,"MEAN_MOTION_DDOT":0},{"OBJECT_NAME":"STARLINK-6059","OBJECT_ID":"2023-078AZ","EPOCH":"2026-02-04T07:28:42.039552","MEAN_MOTION":14.98329837,"ECCENTRICITY":0.00031317,"INCLINATION":69.9996,"RA_OF_ASC_NODE":68.4894,"ARG_OF_PERICENTER":270.8403,"MEAN_ANOMALY":89.2398,"EPHEMERIS_TYPE":0,"CLASSIFICATION_TYPE":"U","NORAD_CAT_ID":56814,"ELEMENT_SET_NO":999,"REV_AT_EPOCH":14768,"BSTAR":1.1782356e-5,"MEAN_MOTION_DOT":4.8e-7,"MEAN_MOTION_DDOT":0},{"OBJECT_NAME":"STARLINK-6067","OBJECT_ID":"2023-078BB","EPOCH":"2026-02-04T06:40:17.882400","MEAN_MOTION":14.98317218,"ECCENTRICITY":0.00029799,"INCLINATION":69.9996,"RA_OF_ASC_NODE":48.5009,"ARG_OF_PERICENTER":269.2663,"MEAN_ANOMALY":90.8155,"EPHEMERIS_TYPE":0,"CLASSIFICATION_TYPE":"U","NORAD_CAT_ID":56816,"ELEMENT_SET_NO":999,"REV_AT_EPOCH":14817,"BSTAR":-0.00015371052,"MEAN_MOTION_DOT":-1.926e-5,"MEAN_MOTION_DDOT":0},{"OBJECT_NAME":"STARLINK-5982","OBJECT_ID":"2023-078BC","EPOCH":"2026-02-04T05:23:50.770752","MEAN_MOTION":16.10753622,"ECCENTRICITY":0.00035705,"INCLINATION":69.9915,"RA_OF_ASC_NODE":56.3903,"ARG_OF_PERICENTER":272.8708,"MEAN_ANOMALY":87.21,"EPHEMERIS_TYPE":0,"CLASSIFICATION_TYPE":"U","NORAD_CAT_ID":56817,"ELEMENT_SET_NO":999,"REV_AT_EPOCH":14797,"BSTAR":0.0011863794,"MEAN_MOTION_DOT":0.01157173,"MEAN_MOTION_DDOT":0.00085060227},{"OBJECT_NAME":"STARLINK-6028","OBJECT_ID":"2023-078BD","EPOCH":"2026-02-04T05:40:34.007808","MEAN_MOTION":14.98351184,"ECCENTRICITY":0.00031881,"INCLINATION":70.0003,"RA_OF_ASC_NODE":68.6263,"ARG_OF_PERICENTER":267.1431,"MEAN_ANOMALY":92.9363,"EPHEMERIS_TYPE":0,"CLASSIFICATION_TYPE":"U","NORAD_CAT_ID":56818,"ELEMENT_SET_NO":999,"REV_AT_EPOCH":14836,"BSTAR":0.00092769979,"MEAN_MOTION_DOT":0.00011,"MEAN_MOTION_DDOT":0},{"OBJECT_NAME":"STARLINK-30119","OBJECT_ID":"2023-079A","EPOCH":"2026-02-03T22:11:55.198752","MEAN_MOTION":15.02539977,"ECCENTRICITY":0.00011506,"INCLINATION":43.0042,"RA_OF_ASC_NODE":290.9839,"ARG_OF_PERICENTER":274.036,"MEAN_ANOMALY":86.035,"EPHEMERIS_TYPE":0,"CLASSIFICATION_TYPE":"U","NORAD_CAT_ID":56823,"ELEMENT_SET_NO":999,"REV_AT_EPOCH":14823,"BSTAR":0.00012700408,"MEAN_MOTION_DOT":1.513e-5,"MEAN_MOTION_DDOT":0},{"OBJECT_NAME":"STARLINK-30120","OBJECT_ID":"2023-079B","EPOCH":"2026-02-04T02:54:18.993888","MEAN_MOTION":15.0252749,"ECCENTRICITY":0.0001043,"INCLINATION":43.0033,"RA_OF_ASC_NODE":289.8782,"ARG_OF_PERICENTER":245.2176,"MEAN_ANOMALY":114.8558,"EPHEMERIS_TYPE":0,"CLASSIFICATION_TYPE":"U","NORAD_CAT_ID":56824,"ELEMENT_SET_NO":999,"REV_AT_EPOCH":14815,"BSTAR":0.00020620119,"MEAN_MOTION_DOT":2.582e-5,"MEAN_MOTION_DDOT":0}]
